NORAD_CAT_ID,OBJECT_NAME,OBJECT_TYPE,EPOCH,MEAN_MOTION,ECCENTRICITY,INCLINATION,RA_OF_ASC_NODE,ARG_OF_PERICENTER,MEAN_ANOMALY,BSTAR,MEAN_MOTION_DOT,MEAN_MOTION_DDOT,TLE_LINE0,TLE_LINE1,TLE_LINE2,SEMIMAJOR_AXIS,PERIOD,APOGEE,PERIGEE,DECAYED
51142.0,STARLINK-3369,PAYLOAD,2022-03-18 06:00:00,15.68093043,0.0004705,53.2172,346.5427,270.4978,252.74,-0.0032486,-0.00353787,0.0,0 STARLINK-3369,1 51142U 22005AQ  22077.25001157 -.00353787  00000-0 -32486-2 0  9991,2 51142  53.2172 346.5427 0004705 270.4978 252.7400 15.68093043 10504,6742.495,91.831,367.532,361.187,0.0
51142.0,STARLINK-3369,PAYLOAD,2022-03-18 14:00:01,15.67847535,0.0003573,53.2175,344.9043,278.901,326.9837,-0.0031596,-0.00341045,0.0,0 STARLINK-3369,1 51142U 22005AQ  22077.58334491 -.00341045  00000-0 -31596-2 0  9992,2 51142  53.2175 344.9043 0003573 278.9010 326.9837 15.67847535  3710,6743.199000000001,91.846,367.473,362.654,0.0
51142.0,STARLINK-3369,PAYLOAD,2022-03-18 22:00:00,15.67610334,0.0002646,53.2177,343.27,286.0675,42.172,-0.0032123,-0.00343197,0.0,0 STARLINK-3369,1 51142U 22005AQ  22077.91667824 -.00343197  00000-0 -32123-2 0  9995,2 51142  53.2177 343.2700 0002646 286.0675  42.1720 15.67610334  3769,6743.879,91.86,367.528,363.959,0.0
51142.0,STARLINK-3369,PAYLOAD,2022-03-19 14:00:01,15.67139433,0.0003135,53.2172,339.9991,285.2022,206.888,-0.0034039,-0.00356218,0.0,0 STARLINK-3369,1 51142U 22005AQ  22078.58334491 -.00356218  00000-0 -34039-2 0  9996,2 51142  53.2172 339.9991 0003135 285.2022 206.8880 15.67139433 10714,6745.23,91.887,369.209,364.98,0.0
51142.0,STARLINK-3369,PAYLOAD,2022-03-19 22:00:01,15.66894351,0.0002375,53.2174,338.3664,303.4628,270.1902,-0.0033224,-0.00344662,0.0,0 STARLINK-3369,1 51142U 22005AQ  22078.91668981 -.00344662  00000-0 -33224-2 0  9992,2 51142  53.2174 338.3664 0002375 303.4628 270.1902 15.66894351  3724,6745.933000000001,91.902,369.4,366.196,0.0
51142.0,STARLINK-3369,PAYLOAD,2022-03-20 14:00:01,15.66417532,0.0002485,53.2174,335.0991,286.6455,89.0736,-0.0033933,-0.00345258,0.0,0 STARLINK-3369,1 51142U 22005AQ  22079.58334491 -.00345258  00000-0 -33933-2 0  9991,2 51142  53.2174 335.0991 0002485 286.6455  89.0736 15.66417532  3682,6747.302,91.93,370.844,367.49,0.0
51142.0,STARLINK-3369,PAYLOAD,2022-03-20 20:00:01,15.66239494,0.0003187,53.2177,333.8758,288.9482,57.2731,-0.0034282,-0.00346326,0.0,0 STARLINK-3369,1 51142U 22005AQ  22079.83334491 -.00346326  00000-0 -34282-2 0  9994,2 51142  53.2177 333.8758 0003187 288.9482  57.2731 15.66239494 10912,6747.813,91.94,371.829,367.528,0.0
51142.0,STARLINK-3369,PAYLOAD,2022-03-20 22:00:01,15.66185306,0.0003025,53.2175,333.4685,294.5577,161.8588,-0.00355,-0.00357341,0.0,0 STARLINK-3369,1 51142U 22005AQ  22079.91668981 -.00357341  00000-0 -35500-2 0  9990,2 51142  53.2175 333.4685 0003025 294.5577 161.8588 15.66185306  3718,6747.969,91.943,371.875,367.793,0.0
51142.0,STARLINK-3369,PAYLOAD,2022-03-21 14:00:01,15.65699352,0.0001496999999999,53.2174,330.2041,305.726,311.0392,-0.0034555,-0.00341623,0.0,0 STARLINK-3369,1 51142U 22005AQ  22080.58334491 -.00341623  00000-0 -34555-2 0  9996,2 51142  53.2174 330.2041 0001497 305.7260 311.0392 15.65699352  3692,6749.365,91.972,372.241,370.22,0.0
51142.0,STARLINK-3369,PAYLOAD,2022-03-21 22:00:00,15.65462135,0.0001419,53.2174,328.5755,343.9942,352.5441,-0.0035087,-0.00343506,0.0,0 STARLINK-3369,1 51142U 22005AQ  22080.91667824 -.00343506  00000-0 -35087-2 0  9995,2 51142  53.2174 328.5755 0001419 343.9942 352.5441 15.65462135 11083,6750.047,91.986,372.87,370.954,0.0
51142.0,STARLINK-3369,PAYLOAD,2022-03-22 14:00:01,15.64988125,0.0001472,53.2172,325.3146,43.5797,91.6476,-0.0036575,-0.00351012,0.0,0 STARLINK-3369,1 51142U 22005AQ  22081.58334491 -.00351012  00000-0 -36575-2 0  9994,2 51142  53.2172 325.3146 0001472  43.5797  91.6476 15.64988125  3711,6751.41,92.013,374.269,372.281,0.0
51142.0,STARLINK-3369,PAYLOAD,2022-03-22 22:00:01,15.64747157,0.0001683,53.2173,323.6876,41.2645,172.9421,-0.0036454,-0.00346701,0.0,0 STARLINK-3369,1 51142U 22005AQ  22081.91668981 -.00346701  00000-0 -36454-2 0  9990,2 51142  53.2173 323.6876 0001683  41.2645 172.9421 15.64747157  3704,6752.103,92.028,375.104,372.832,0.0
51142.0,STARLINK-3369,PAYLOAD,2022-03-23 06:00:00,15.6451158,0.00012,53.2173,322.0594,67.304,225.4636,-0.0037365,-0.00351787,0.0,0 STARLINK-3369,1 51142U 22005AQ  22082.25001157 -.00351787  00000-0 -37365-2 0  9996,2 51142  53.2173 322.0594 0001200  67.3040 225.4636 15.64511580 11291,6752.781,92.042,375.456,373.835,0.0
51142.0,STARLINK-3369,PAYLOAD,2022-03-23 14:00:01,15.64270001,0.0001355,53.2175,320.4302,47.3832,323.7271,-0.0037232,-0.00347384,0.0,0 STARLINK-3369,1 51142U 22005AQ  22082.58334491 -.00347384  00000-0 -37232-2 0  9993,2 51142  53.2175 320.4302 0001355  47.3832 323.7271 15.64270001  3726,6753.476,92.056,376.256,374.426,0.0
51142.0,STARLINK-3369,PAYLOAD,2022-03-23 22:00:00,15.64033563,0.0001631999999999,53.2175,318.8053,38.4402,50.7217,-0.0037961,-0.00350747,0.0,0 STARLINK-3369,1 51142U 22005AQ  22082.91667824 -.00350747  00000-0 -37961-2 0  9995,2 51142  53.2175 318.8053 0001632  38.4402  50.7217 15.64033563  3718,6754.156999999997,92.07,377.124,374.919,0.0
51142.0,STARLINK-3369,PAYLOAD,2022-03-24 14:00:01,15.63555034,0.0001462,53.2173,315.551,50.5462,193.8642,-0.0038469,-0.00348843,0.0,0 STARLINK-3369,1 51142U 22005AQ  22083.58334491 -.00348843  00000-0 -38469-2 0  9998,2 51142  53.2173 315.5510 0001462  50.5462 193.8642 15.63555034  3688,6755.535,92.098,378.387,376.412,0.0
51142.0,STARLINK-3369,PAYLOAD,2022-03-24 22:00:00,15.6331724,0.000148,53.2173,313.9279,46.2045,275.3977,-0.0039064999999999,-0.00350852,0.0,0 STARLINK-3369,1 51142U 22005AQ  22083.91667824 -.00350852  00000-0 -39065-2 0  9990,2 51142  53.2173 313.9279 0001480  46.2045 275.3977 15.63317240 11558,6756.22,92.112,379.085,377.085,0.0
51142.0,STARLINK-3369,PAYLOAD,2022-03-25 14:00:01,15.62839368,0.0001426999999999,53.2174,310.6771,47.975,67.1544,-0.0039638,-0.00349426,0.0,0 STARLINK-3369,1 51142U 22005AQ  22084.58334491 -.00349426  00000-0 -39638-2 0  9996,2 51142  53.2174 310.6771 0001427  47.9750  67.1544 15.62839368  3694,6757.597,92.14,380.426,378.49800000000016,0.0
51142.0,STARLINK-3369,PAYLOAD,2022-03-25 22:00:01,15.62600046,0.0001726,53.2175,309.0556,40.2721,151.2543,-0.0039913,-0.00348618,0.0,0 STARLINK-3369,1 51142U 22005AQ  22084.91668981 -.00348618  00000-0 -39913-2 0  9995,2 51142  53.2175 309.0556 0001726  40.2721 151.2543 15.62600046  3709,6758.2869999999975,92.154,381.318,378.985,0.0
51142.0,STARLINK-3369,PAYLOAD,2022-03-26 06:00:00,15.62363104,0.0001358,53.2174,307.432,56.3854,211.1216,-0.0040704,-0.00352066,0.0,0 STARLINK-3369,1 51142U 22005AQ  22085.25001157 -.00352066  00000-0 -40704-2 0  9991,2 51142  53.2174 307.4320 0001358  56.3854 211.1216 15.62363104 11764,6758.97,92.168,381.753,379.917,0.0
51142.0,STARLINK-3369,PAYLOAD,2022-03-26 14:00:01,15.62121495,0.0001335,53.2176,305.8085,50.9657,292.3019,-0.0040367,-0.00346128,0.0,0 STARLINK-3369,1 51142U 22005AQ  22085.58334491 -.00346128  00000-0 -40367-2 0  9994,2 51142  53.2176 305.8085 0001335  50.9657 292.3019 15.62121495  3670,6759.667,92.182,382.434,380.63,0.0
51142.0,STARLINK-3369,PAYLOAD,2022-03-26 22:00:00,15.61886011,0.0001585,53.2175,304.189,38.8939,19.8434,-0.0041479,-0.0035216,0.0,0 STARLINK-3369,1 51142U 22005AQ  22085.91667824 -.00352160  00000-0 -41479-2 0  9998,2 51142  53.2175 304.1890 0001585  38.8939  19.8434 15.61886011  3708,6760.346,92.196,383.283,381.14,0.0
51142.0,STARLINK-3369,PAYLOAD,2022-03-27 14:00:01,15.61407107,0.0001496,53.2174,300.945,49.9009,158.9218,-0.004177,-0.00348253,0.0,0 STARLINK-3369,1 51142U 22005AQ  22086.58334491 -.00348253  00000-0 -41770-2 0  9995,2 51142  53.2174 300.9450 0001496  49.9009 158.9218 15.61407107 11962,6761.729,92.225,384.605,382.582,0.0
51142.0,STARLINK-3369,PAYLOAD,2022-03-27 22:00:01,15.61168763,0.0001631,53.2175,299.3271,42.2923,241.2061,-0.0042427,-0.00350392,0.0,0 STARLINK-3369,1 51142U 22005AQ  22086.91668981 -.00350392  00000-0 -42427-2 0  9993,2 51142  53.2175 299.3271 0001631  42.2923 241.2061 15.61168763  3692,6762.417,92.239,385.385,383.179,0.0
51142.0,STARLINK-3369,PAYLOAD,2022-03-28 14:00:01,15.60689472,0.0001496,53.2176,296.0868,41.969,29.894,-0.0042663999999999,-0.00346062,0.0,0 STARLINK-3369,1 51142U 22005AQ  22087.58335648 -.00346062  00000-0 -42664-2 0  9990,2 51142  53.2176 296.0868 0001496  41.9690  29.8940 15.60689472  3707,6763.801,92.267,386.67800000000005,384.654,0.0
51142.0,STARLINK-3369,PAYLOAD,2022-03-28 22:00:00,15.60452216,0.0001678,53.2176,294.4707,40.2874,105.2601,-0.0043437,-0.00349006,0.0,0 STARLINK-3369,1 51142U 22005AQ  22087.91667824 -.00349006  00000-0 -43437-2 0  9991,2 51142  53.2176 294.4707 0001678  40.2874 105.2601 15.60452216 12177,6764.486999999999,92.281,387.487,385.217,0.0
51142.0,STARLINK-3369,PAYLOAD,2022-03-29 14:00:01,15.5984084,0.0001593,53.2169,291.2318,56.4201,235.8545,-0.0021813,-0.00175139,0.0,0 STARLINK-3369,1 51142U 22005AQ  22088.58334491 -.00175139  00000-0 -21813-2 0  9994,2 51142  53.2169 291.2318 0001593  56.4201 235.8545 15.59840840  3664,6766.254,92.317,389.197,387.041,0.0
51142.0,STARLINK-3369,PAYLOAD,2022-03-29 22:00:00,15.59600462,0.0001248,53.2171,289.6181,51.6439,313.5092,-0.0019436,-0.00155061,0.0,0 STARLINK-3369,1 51142U 22005AQ  22088.91667824 -.00155061  00000-0 -19436-2 0  9990,2 51142  53.2171 289.6181 0001248  51.6439 313.5092 15.59600462  3668,6766.95,92.331,389.659,387.97,0.0
51142.0,STARLINK-3369,PAYLOAD,2022-03-30 02:00:01,15.59619575,0.0001359,53.217,288.8109,50.9726,170.4436,-0.0045369,-0.00352872,0.0,0 STARLINK-3369,1 51142U 22005AQ  22089.08334491 -.00352872  00000-0 -45369-2 0  9993,2 51142  53.2170 288.8109 0001359  50.9726 170.4436 15.59619575 12355,6766.894,92.33,389.679,387.84,0.0
